KUIPER-00061            
1 64521U 25134X   25324.37204133  .00003697  00000+0  51193-3 0  9998
2 64521  51.9028 351.4819 0004922 277.5650  82.4753 14.80079159 23946
KUIPER-00062            
1 64522U 25134Y   25324.47480981  .00004387  00000+0  53628-3 0  9999
2 64522  51.8983 356.7958 0006626 299.9490  60.0816 14.84969346 23897
KUIPER-00063            
1 64523U 25134Z   25324.35468477  .00003957  00000+0  54548-3 0  9997
2 64523  51.9025   1.4866 0003105 239.3148 120.7508 14.80110012 23813
KUIPER-00064            
1 64524U 25134AA  25324.75002315 -.00032543  00000+0 -46242-2 0  9993
2 64524  51.9035 357.1646 0007396 353.8286 293.8560 14.76452681  5730
KUIPER-00065            
1 64525U 25134AB  25324.33054606  .00004661  00000+0  68664-3 0  9999
2 64525  51.9023   3.9449 0010498 279.8089  80.1687 14.76887492 23762
KUIPER-00066            
1 64526U 25134AC  25324.48549250  .00015457  00000+0  72546-3 0  9999
2 64526  51.8900 339.4781 0001800 349.8374  10.2568 15.19808811 24134
KUIPER-00069            
1 64816U 25151A   25324.33335648 -.00020078  00000+0 -27809-2 0  9996
2 64816  51.9020  44.1224 0006310 275.5357 208.8947 14.77288204  4909
KUIPER-00070            
1 64817U 25151B   25324.25489429 -.00013932  00000+0 -18015-2 0  9995
2 64817  51.9005  69.4842 0015422 260.6479  99.2739 14.79850163 20217
